0 PEGASUS DEB
1 24213U 94029KL  13282.14071672  .00007586  00000-0  21377-2 0  1833
2 24213 081.4734 039.5843 0612593 112.1638 308.2683 13.71354172522891
0 PEGASUS DEB
1 24213U 94029KL  13283.46535521  .00006895  00000-0  19426-2 0  1842
2 24213 081.4733 038.3986 0612462 108.6094 007.8750 13.71373252523074
0 PEGASUS DEB
1 24213U 94029KL  13285.80765612  .00004145  00000-0  11655-2 0  1862
2 24213 081.4736 036.3018 0612301 102.3193 051.7417 13.71391541523398
0 PEGASUS DEB
1 24213U 94029KL  13286.82276397  .00003706  00000-0  10418-2 0  1871
2 24213 081.4738 035.3931 0612163 099.5907 023.3457 13.71396471523531
0 PEGASUS DEB
1 24213U 94029KL  13288.12329924  .00004630  00000-0  13025-2 0  1886
2 24213 081.4745 034.2294 0612241 096.0962 324.1315 13.71404585523710
0 PEGASUS DEB
1 24213U 94029KL  13289.52214340  .00003348  00000-0  93990-3 0  1892
2 24213 081.4751 032.9778 0612229 092.3379 030.3216 13.71412153523903
0 PEGASUS DEB
1 24213U 94029KL  13290.69049068  .00003479  00000-0  97707-3 0  1902
2 24213 081.4753 031.9326 0612131 089.1986 038.5634 13.71419650524064
0 PEGASUS DEB
1 24213U 94029KL  13291.78239969  .00003057  00000-0  85805-3 0  1913
2 24213 081.4752 030.9556 0612036 086.2653 029.4497 13.71424692524215
0 PEGASUS DEB
1 24213U 94029KL  13293.08356507  .00002588  00000-0  72515-3 0  1929
2 24213 081.4746 029.7912 0612075 082.7738 333.4751 13.71428278524392
0 PEGASUS DEB
1 24213U 94029KL  13294.17666198  .00002691  00000-0  75437-3 0  1932
2 24213 081.4742 028.8128 0611995 079.8379 330.2604 13.71433240524549
0 PEGASUS DEB
1 24213U 94029KL  13295.34739361  .00003669  00000-0  10316-2 0  1946
2 24213 081.4742 027.7649 0611892 076.6906 350.3758 13.71441490524709
